0 EXPLORER 27
1 01328U 65032A   13282.47472789  .00000037  00000-0  19018-3 0  5374
2 01328 041.1852 035.1171 0239159 331.8787 026.9224 13.38336932367812
0 EXPLORER 27
1 01328U 65032A   13283.74365061  .00000027  00000-0  17485-3 0  5385
2 01328 041.1851 029.6936 0239075 338.4700 020.6136 13.38337059367985
0 EXPLORER 27
1 01328U 65032A   13286.13221702  .00000025  00000-0  17244-3 0  5408
2 01328 041.1850 019.4844 0238898 350.8903 008.7561 13.38337279368304
0 EXPLORER 27
1 01328U 65032A   13287.47578757 -.00000005  00000-0  12531-3 0  5415
2 01328 041.1848 013.7417 0238808 357.8782 002.0946 13.38337377368489
0 EXPLORER 27
1 01328U 65032A   13288.67007255 -.00000019  00000-0  10438-3 0  5428
2 01328 041.1847 008.6372 0238752 004.0916 356.1725 13.38337344368649
0 EXPLORER 27
1 01328U 65032A   13289.71507157 -.00000012  00000-0  11471-3 0  5432
2 01328 041.1846 004.1706 0238691 009.5320 350.9854 13.38337572368784
0 EXPLORER 27
1 01328U 65032A   13291.13328313 -.00000033  00000-0  83056-4 0  5449
2 01328 041.1844 358.1088 0238612 016.9164 343.9382 13.38337785368973
0 EXPLORER 27
1 01328U 65032A   13292.17827945 -.00000060  00000-0  39636-4 0  5455
2 01328 041.1843 353.6422 0238570 022.3591 338.7364 13.38337818369118
0 EXPLORER 27
1 01328U 65032A   13293.44720075 -.00000070  00000-0  24313-4 0  5460
2 01328 041.1841 348.2183 0238516 028.9697 332.4063 13.38337669369288
0 EXPLORER 27
1 01328U 65032A   13294.49219230 -.00000065  00000-0  33603-4 0  5479
2 01328 041.1839 343.7516 0238479 034.4168 327.1780 13.38337626369424
0 EXPLORER 27
1 01328U 65032A   13295.61182326 -.00000075  00000-0  16801-4 0  5482
2 01328 041.1838 338.9658 0238447 040.2479 321.5666 13.38337712369574
